GLOBALSTAR M024         
1 25883U 99043A   24215.64024935  .00000006  00000+0  25278-2 0  9999
2 25883  52.0048  19.3707 0000754 330.4530 111.4425 11.10160343 79484
GLOBALSTAR M027         
1 25884U 99043B   24215.62038979 -.00000002  00000+0  23268-2 0  9995
2 25884  52.0213  88.3725 0020692 195.7161 164.2991 11.04369374106045
GLOBALSTAR M054         
1 25885U 99043C   24215.64604562 -.00000008  00000+0  16078-2 0  9992
2 25885  52.0120 269.0749 0004782 353.7389 173.7239 11.39211308 82748
GLOBALSTAR M053         
1 25886U 99043D   24215.43164179 -.00000061  00000+0  21718-3 0  9992
2 25886  51.9944 198.9950 0003755 264.9814 265.3105 11.27657515 83483
GLOBALSTAR M033         
1 25909U 99049C   24215.55729236 -.00000099  00000+0 -74041-4 0  9998
2 25909  51.9899 165.3130 0012900 332.3270  27.6889 12.20274010496849
GLOBALSTAR M055         
1 25910U 99049D   24215.39382599 -.00000084  00000+0  91091-4 0  9996
2 25910  51.9994 192.0336 0006866 189.8120 170.2598 12.29405538129075
